[
  {
    "name": "Algeria",
    "dial_code": "+213",
    "code": "DZ"
  },
  {
    "name": "Bahrain",
    "dial_code": "+973",
    "code": "BH"
  },
  {
    "name": "Comoros",
    "dial_code": "+269",
    "code": "KM"
  },
  {
    "name": "Djibouti",
    "dial_code": "+253",
    "code": "DJ"
  },
  {
    "name": "Egypt",
    "dial_code": "+20",
    "code": "EG"
  },
  {
    "name": "Iraq",
    "dial_code": "+964",
    "code": "IQ"
  },
  {
    "name": "Jordan",
    "dial_code": "+962",
    "code": "JO"
  },
  {
    "name": "Kuwait",
    "dial_code": "+965",
    "code": "KW"
  },
  {
    "name": "Lebanon",
    "dial_code": "+961",
    "code": "LB"
  },
  {
    "name": "Libya",
    "dial_code": "+218",
    "code": "LY"
  },
  {
    "name": "Mauritania",
    "dial_code": "+222",
    "code": "MR"
  },
  {
    "name": "Morocco",
    "dial_code": "+212",
    "code": "MA"
  },
  {
    "name": "Oman",
    "dial_code": "+968",
    "code": "OM"
  },
  {
    "name": "Palestine",
    "dial_code": "+970",
    "code": "PS"
  },
  {
    "name": "Qatar",
    "dial_code": "+974",
    "code": "QA"
  },
  {
    "name": "Saudi Arabia",
    "dial_code": "+966",
    "code": "SA"
  },
  {
    "name": "Somalia",
    "dial_code": "+252",
    "code": "SO"
  },
  {
    "name": "Sudan",
    "dial_code": "+249",
    "code": "SD"
  },
  {
    "name": "Syria",
    "dial_code": "+963",
    "code": "SY"
  },
  {
    "name": "Tunisia",
    "dial_code": "+216",
    "code": "TN"
  },
  {
    "name": "United Arab Emirates",
    "dial_code": "+971",
    "code": "AE"
  },
  {
    "name": "Yemen",
    "dial_code": "+967",
    "code": "YE"
  }
]
